{
  "type": "FeatureCollection",
  "features": [
    {
      "type": "Feature",
      "properties": {
        "norad_id": 36451,
        "name": "COSMOS 2251 DEB",
        "group": "cosmos-2251-debris",
        "lat": -13.477676657313095,
        "lon": 148.12593570717476,
        "alt_km": 741.8021710068706,
        "timestamp": "2025-12-18T21:31:51.402414+00:00",
        "meta_object_name": "COSMOS 2251 DEB",
        "meta_object_id": "1993-036BBA",
        "meta_epoch": "2025-12-17T15:51:47.903904",
        "meta_mean_motion": 14.18761243,
        "meta_eccentricity": 0.01833733,
        "meta_inclination": 73.9538,
        "meta_ra_of_asc_node": 326.3887,
        "meta_arg_of_pericenter": 149.6881,
        "meta_mean_anomaly": 211.5024,
        "meta_ephemeris_type": 0,
        "meta_classification_type": "U",
        "meta_norad_cat_id": 36451,
        "meta_element_set_no": 999,
        "meta_rev_at_epoch": 84295,
        "meta_bstar": 0.0004725236,
        "meta_mean_motion_dot": 1.135e-05,
        "meta_mean_motion_ddot": 0,
        "tle_line1": "1 36451U 93036BBA 25351.66097111  .00001135  00000+0  47252-3 0  9999",
        "tle_line2": "2 36451  73.9538 326.3887 0183373 149.6881 211.5024 14.18761243842955"
      },
      "geometry": {
        "type": "Point",
        "coordinates": [
          148.12593570717476,
          -13.477676657313095
        ]
      }
    },
    {
      "type": "Feature",
      "properties": {
        "norad_id": 36453,
        "name": "COSMOS 2251 DEB",
        "group": "cosmos-2251-debris",
        "lat": 58.42815262143787,
        "lon": -67.2912495080925,
        "alt_km": 697.8287108830327,
        "timestamp": "2025-12-18T21:31:51.402424+00:00",
        "meta_object_name": "COSMOS 2251 DEB",
        "meta_object_id": "1993-036BBC",
        "meta_epoch": "2025-12-17T20:53:31.826400",
        "meta_mean_motion": 14.52642075,
        "meta_eccentricity": 0.00704929,
        "meta_inclination": 73.9231,
        "meta_ra_of_asc_node": 142.6453,
        "meta_arg_of_pericenter": 44.558,
        "meta_mean_anomaly": 105.6179,
        "meta_ephemeris_type": 0,
        "meta_classification_type": "U",
        "meta_norad_cat_id": 36453,
        "meta_element_set_no": 999,
        "meta_rev_at_epoch": 84542,
        "meta_bstar": 0.00064907076,
        "meta_mean_motion_dot": 2.717e-05,
        "meta_mean_motion_ddot": 0,
        "tle_line1": "1 36453U 93036BBC 25351.87050725  .00002717  00000+0  64907-3 0  9997",
        "tle_line2": "2 36453  73.9231 142.6453 0070492  44.5580 105.6179 14.52642075845429"
      },
      "geometry": {
        "type": "Point",
        "coordinates": [
          -67.2912495080925,
          58.42815262143787
        ]
      }
    },
    {
      "type": "Feature",
      "properties": {
        "norad_id": 36459,
        "name": "COSMOS 2251 DEB",
        "group": "cosmos-2251-debris",
        "lat": 3.6580429370656464,
        "lon": 167.62794142704882,
        "alt_km": 809.3774476899789,
        "timestamp": "2025-12-18T21:31:51.402434+00:00",
        "meta_object_name": "COSMOS 2251 DEB",
        "meta_object_id": "1993-036BBJ",
        "meta_epoch": "2025-12-15T06:52:40.994112",
        "meta_mean_motion": 14.2642949,
        "meta_eccentricity": 0.01133967,
        "meta_inclination": 74.0484,
        "meta_ra_of_asc_node": 355.1955,
        "meta_arg_of_pericenter": 90.2624,
        "meta_mean_anomaly": 271.1518,
        "meta_ephemeris_type": 0,
        "meta_classification_type": "U",
        "meta_norad_cat_id": 36459,
        "meta_element_set_no": 999,
        "meta_rev_at_epoch": 7918,
        "meta_bstar": 0.0010918207,
        "meta_mean_motion_dot": 2.788e-05,
        "meta_mean_motion_ddot": 0,
        "tle_line1": "1 36459U 93036BBJ 25349.28658558  .00002788  00000+0  10918-2 0  9993",
        "tle_line2": "2 36459  74.0484 355.1955 0113396  90.2624 271.1518 14.26429490 79186"
      },
      "geometry": {
        "type": "Point",
        "coordinates": [
          167.62794142704882,
          3.6580429370656464
        ]
      }
    },
    {
      "type": "Feature",
      "properties": {
        "norad_id": 36470,
        "name": "COSMOS 2251 DEB",
        "group": "cosmos-2251-debris",
        "lat": -33.51706919557845,
        "lon": 72.66700947951198,
        "alt_km": 561.4639594960081,
        "timestamp": "2025-12-18T21:31:51.402444+00:00",
        "meta_object_name": "COSMOS 2251 DEB",
        "meta_object_id": "1993-036BBV",
        "meta_epoch": "2025-12-15T00:13:00.014016",
        "meta_mean_motion": 15.07582269,
        "meta_eccentricity": 0.00222568,
        "meta_inclination": 73.8449,
        "meta_ra_of_asc_node": 249.6845,
        "meta_arg_of_pericenter": 78.1368,
        "meta_mean_anomaly": 282.2316,
        "meta_ephemeris_type": 0,
        "meta_classification_type": "U",
        "meta_norad_cat_id": 36470,
        "meta_element_set_no": 999,
        "meta_rev_at_epoch": 66128,
        "meta_bstar": 0.0018721064,
        "meta_mean_motion_dot": 0.0002872,
        "meta_mean_motion_ddot": 0,
        "tle_line1": "1 36470U 93036BBV 25349.00902794  .00028720  00000+0  18721-2 0  9994",
        "tle_line2": "2 36470  73.8449 249.6845 0022256  78.1368 282.2316 15.07582269661287"
      },
      "geometry": {
        "type": "Point",
        "coordinates": [
          72.66700947951198,
          -33.51706919557845
        ]
      }
    },
    {
      "type": "Feature",
      "properties": {
        "norad_id": 36528,
        "name": "COSMOS 2251 DEB",
        "group": "cosmos-2251-debris",
        "lat": 20.638696037803104,
        "lon": 140.19787114111233,
        "alt_km": 846.2418304750972,
        "timestamp": "2025-12-18T21:31:51.402455+00:00",
        "meta_object_name": "COSMOS 2251 DEB",
        "meta_object_id": "1993-036BCN",
        "meta_epoch": "2025-12-14T16:44:10.040352",
        "meta_mean_motion": 14.30658136,
        "meta_eccentricity": 0.00847741,
        "meta_inclination": 74.0159,
        "meta_ra_of_asc_node": 141.651,
        "meta_arg_of_pericenter": 190.7529,
        "meta_mean_anomaly": 169.1813,
        "meta_ephemeris_type": 0,
        "meta_classification_type": "U",
        "meta_norad_cat_id": 36528,
        "meta_element_set_no": 999,
        "meta_rev_at_epoch": 64455,
        "meta_bstar": 0.0012089622,
        "meta_mean_motion_dot": 3.261e-05,
        "meta_mean_motion_ddot": 0,
        "tle_line1": "1 36528U 93036BCN 25348.69733843  .00003261  00000+0  12090-2 0  9995",
        "tle_line2": "2 36528  74.0159 141.6510 0084774 190.7529 169.1813 14.30658136644553"
      },
      "geometry": {
        "type": "Point",
        "coordinates": [
          140.19787114111233,
          20.638696037803104
        ]
      }
    },
    {
      "type": "Feature",
      "properties": {
        "norad_id": 36533,
        "name": "COSMOS 2251 DEB",
        "group": "cosmos-2251-debris",
        "lat": -59.96465150719784,
        "lon": -47.01961990078448,
        "alt_km": 698.2304768910608,
        "timestamp": "2025-12-18T21:31:51.402467+00:00",
        "meta_object_name": "COSMOS 2251 DEB",
        "meta_object_id": "1993-036BCT",
        "meta_epoch": "2025-12-16T02:09:50.256000",
        "meta_mean_motion": 14.4982965,
        "meta_eccentricity": 0.00492471,
        "meta_inclination": 74.0118,
        "meta_ra_of_asc_node": 108.5273,
        "meta_arg_of_pericenter": 257.1253,
        "meta_mean_anomaly": 102.4403,
        "meta_ephemeris_type": 0,
        "meta_classification_type": "U",
        "meta_norad_cat_id": 36533,
        "meta_element_set_no": 999,
        "meta_rev_at_epoch": 84533,
        "meta_bstar": 0.00039238166,
        "meta_mean_motion_dot": 1.509e-05,
        "meta_mean_motion_ddot": 0,
        "tle_line1": "1 36533U 93036BCT 25350.09016500  .00001509  00000+0  39238-3 0  9999",
        "tle_line2": "2 36533  74.0118 108.5273 0049247 257.1253 102.4403 14.49829650845335"
      },
      "geometry": {
        "type": "Point",
        "coordinates": [
          -47.01961990078448,
          -59.96465150719784
        ]
      }
    },
    {
      "type": "Feature",
      "properties": {
        "norad_id": 36539,
        "name": "COSMOS 2251 DEB",
        "group": "cosmos-2251-debris",
        "lat": -59.71733454061924,
        "lon": 14.05491087137258,
        "alt_km": 708.090371508828,
        "timestamp": "2025-12-18T21:31:51.402478+00:00",
        "meta_object_name": "COSMOS 2251 DEB",
        "meta_object_id": "1993-036BCZ",
        "meta_epoch": "2025-12-18T05:22:19.020864",
        "meta_mean_motion": 14.59335768,
        "meta_eccentricity": 0.00268508,
        "meta_inclination": 74.0239,
        "meta_ra_of_asc_node": 44.7186,
        "meta_arg_of_pericenter": 189.0211,
        "meta_mean_anomaly": 171.0476,
        "meta_ephemeris_type": 0,
        "meta_classification_type": "U",
        "meta_norad_cat_id": 36539,
        "meta_element_set_no": 999,
        "meta_rev_at_epoch": 84027,
        "meta_bstar": 0.00049631883,
        "meta_mean_motion_dot": 2.33e-05,
        "meta_mean_motion_ddot": 0,
        "tle_line1": "1 36539U 93036BCZ 25352.22383126  .00002330  00000+0  49632-3 0  9995",
        "tle_line2": "2 36539  74.0239  44.7186 0026850 189.0211 171.0476 14.59335768840274"
      },
      "geometry": {
        "type": "Point",
        "coordinates": [
          14.05491087137258,
          -59.71733454061924
        ]
      }
    }
  ]
}